     2              NAVIGATION DATA                         RINEX VERSION / TYPE
CCRINEXN V1.6.0 UX  CDDIS               11-OCT-16 15:33     PGM / RUN BY / DATE 
IGS BROADCAST EPHEMERIS FILE                                COMMENT             
    0.1583D-07  0.0000D+00 -0.1192D-06  0.0000D+00          ION ALPHA           
    0.1106D+06  0.0000D+00 -0.2621D+06  0.6554D+05          ION BETA            
    0.931322574615D-09-0.177635683940D-14   233472     1918 DELTA-UTC: A0,A1,T,W
    17                                                      LEAP SECONDS        
                                                            END OF HEADER       
 3 16 10 10  4  0  0.0-0.916640274227D-04-0.216004991671D-11 0.000000000000D+00
    0.130000000000D+03 0.843750000000D+01 0.452340270359D-08 0.141383766632D+01
    0.298023223877D-06 0.239660730585D-03 0.908039510250D-05 0.515360535240D+04
    0.100800000000D+06 0.372529029846D-07 0.266121622616D+01 0.931322574616D-08
    0.959729060911D+00 0.200906250000D+03 0.640997155144D+00-0.799140430264D-08
    0.335728270144D-09 0.100000000000D+01 0.191800000000D+04 0.000000000000D+00
    0.280000000000D+01 0.000000000000D+00 0.139698386192D-08 0.130000000000D+03
    0.936000000000D+05 0.400000000000D+01 0.000000000000D+00 0.000000000000D+00
 4 16 10 10  4  0  0.0 0.663800165057D-05 0.318323145621D-11 0.000000000000D+00
    0.840000000000D+02 0.837500000000D+01 0.475984096582D-08-0.959690615423D-01
    0.292435288429D-06 0.840624561533D-02 0.669248402119D-05 0.515359287071D+04
    0.100800000000D+06-0.577419996262D-07-0.246276026028D+01-0.160187482834D-06
    0.966339276732D+00 0.255312500000D+03-0.100310954125D+01-0.825927237713D-08
   -0.739316524667D-10 0.100000000000D+01 0.191800000000D+04 0.000000000000D+00
    0.400000000000D+01 0.100000000000D+01-0.372529029846D-08 0.840000000000D+02
    0.938700000000D+05 0.000000000000D+00 0.000000000000D+00 0.000000000000D+00
 5 16 10 10  4  0  0.0-0.855545513332D-04 0.250111042988D-11 0.000000000000D+00
    0.500000000000D+01 0.800000000000D+01 0.481055752189D-08-0.731156717372D+00
    0.575557351112D-06 0.480527163017D-02 0.858679413795D-05 0.515361222649D+04
    0.100800000000D+06 0.577419996262D-07 0.264750267701D+01 0.000000000000D+00
    0.946746508524D+00 0.202718750000D+03 0.527273373704D+00-0.819998441941D-08
    0.313227332890D-09 0.100000000000D+01 0.191800000000D+04 0.000000000000D+00
    0.200000000000D+01 0.000000000000D+00-0.107102096081D-07 0.500000000000D+01
    0.936000000000D+05 0.400000000000D+01 0.000000000000D+00 0.000000000000D+00
 6 16 10 10  4  0  0.0 0.257517211139D-03 0.511590769747D-11 0.000000000000D+00
    0.850000000000D+02-0.705937500000D+02 0.424517682865D-08-0.302226525661D+01
   -0.349059700966D-05 0.209784018807D-03 0.844523310661D-05 0.515378186989D+04
    0.100800000000D+06-0.726431608200D-07 0.161091075621D+01-0.931322574616D-08
    0.964928476573D+00 0.219843750000D+03-0.172812876284D+01-0.787139930395D-08
    0.114290474943D-10 0.100000000000D+01 0.191800000000D+04 0.000000000000D+00
    0.200000000000D+01 0.000000000000D+00 0.419095158577D-08 0.850000000000D+02
    0.936000000000D+05 0.400000000000D+01 0.000000000000D+00 0.000000000000D+00
 7 16 10 10  4  0  0.0 0.420690514147D-03-0.306954461848D-11 0.000000000000D+00
    0.400000000000D+01 0.225937500000D+02 0.451197346152D-08 0.195312905249D+01
    0.124052166939D-05 0.100416212808D-01 0.957958400250D-05 0.515363131714D+04
    0.100800000000D+06-0.264495611191D-06-0.150532704010D+01 0.633299350738D-07
    0.964613225041D+00 0.199468750000D+03-0.262188435551D+01-0.805033550932D-08
   -0.280725970247D-09 0.100000000000D+01 0.191800000000D+04 0.000000000000D+00
    0.200000000000D+01 0.000000000000D+00-0.111758708954D-07 0.400000000000D+01
    0.936000000000D+05 0.000000000000D+00 0.000000000000D+00 0.000000000000D+00
 8 16 10 10  4  0  0.0-0.349297188222D-04-0.136424205266D-11 0.000000000000D+00
    0.170000000000D+02-0.346562500000D+02 0.457483340099D-08-0.728806897893D+00
   -0.168941915035D-05 0.179885502439D-02 0.435672700405D-05 0.515375987625D+04
    0.100800000000D+06-0.800937414169D-07 0.557630514041D+00 0.633299350738D-07
    0.964647319810D+00 0.299125000000D+03-0.102041858901D+01-0.831570368121D-08
   -0.596453442192D-10 0.100000000000D+01 0.191800000000D+04 0.000000000000D+00
    0.200000000000D+01 0.000000000000D+00 0.512227416039D-08 0.170000000000D+02
    0.936000000000D+05 0.000000000000D+00 0.000000000000D+00 0.000000000000D+00
 9 16 10 10  4  0  0.0 0.222167465836D-03 0.727595761418D-11 0.000000000000D+00
    0.280000000000D+02 0.160625000000D+02 0.502235205827D-08-0.145130613190D+01
    0.890344381332D-06 0.584835419431D-03 0.667572021484D-05 0.515376330185D+04
    0.100800000000D+06 0.223517417908D-07-0.258411486673D+01 0.149011611938D-07
    0.954624489153D+00 0.251875000000D+03 0.190645148102D+01-0.824141471657D-08
   -0.192865176466D-10 0.100000000000D+01 0.191800000000D+04 0.000000000000D+00
    0.200000000000D+01 0.000000000000D+00 0.139698386192D-08 0.280000000000D+02
    0.989100000000D+05 0.400000000000D+01 0.000000000000D+00 0.000000000000D+00
10 16 10 10  4  0  0.0-0.106348656118D-03-0.341060513165D-11 0.000000000000D+00
    0.103000000000D+03 0.109375000000D+02 0.456733310490D-08 0.520704978321D+00
    0.581145286560D-06 0.179092970211D-02 0.891648232937D-05 0.515367877769D+04
    0.100800000000D+06 0.204890966415D-07 0.265732656544D+01 0.745058059692D-07
    0.959939472418D+00 0.208125000000D+03-0.289271142589D+01-0.803104881113D-08
    0.324299222650D-09 0.100000000000D+01 0.191800000000D+04 0.000000000000D+00
    0.280000000000D+01 0.000000000000D+00 0.232830643654D-08 0.103000000000D+03
    0.936000000000D+05 0.400000000000D+01 0.000000000000D+00 0.000000000000D+00
11 16 10 10  4  0  0.0-0.666541047394D-03-0.102318153950D-11 0.000000000000D+00
    0.560000000000D+02-0.959062500000D+02 0.580131307655D-08 0.204986740121D+01
   -0.508874654770D-05 0.168226155220D-01 0.611133873463D-05 0.515368382263D+04
    0.100800000000D+06 0.322237610817D-06 0.123263730489D+01-0.154599547386D-06
    0.897866358823D+00 0.223687500000D+03 0.158506493046D+01-0.860250118585D-08
   -0.114290474943D-09 0.100000000000D+01 0.191800000000D+04 0.000000000000D+00
    0.200000000000D+01 0.000000000000D+00-0.121071934700D-07 0.560000000000D+02
    0.936000000000D+05 0.400000000000D+01 0.000000000000D+00 0.000000000000D+00
12 16 10 10  4  0  0.0 0.389169435948D-03 0.227373675443D-12 0.000000000000D+00
    0.260000000000D+02 0.413437500000D+02 0.389194782954D-08 0.135927105164D+01
    0.214949250221D-05 0.604780856520D-02 0.685267150402D-05 0.515365214539D+04
    0.100800000000D+06-0.113621354103D-06-0.426174581139D+00 0.137835741043D-06
    0.990288477467D+00 0.262531250000D+03 0.785777948634D+00-0.792354433314D-08
    0.571452374714D-11 0.100000000000D+01 0.191800000000D+04 0.000000000000D+00
    0.200000000000D+01 0.000000000000D+00-0.125728547573D-07 0.260000000000D+02
    0.936000000000D+05 0.400000000000D+01 0.000000000000D+00 0.000000000000D+00
13 16 10 10  4  0  0.0-0.484921038151D-04-0.216004991671D-11 0.000000000000D+00
    0.105000000000D+03 0.871875000000D+01 0.457876215239D-08 0.295673946324D+01
    0.307336449623D-06 0.400691817049D-02 0.673532485962D-05 0.515368209648D+04
    0.100800000000D+06 0.633299350738D-07-0.246134472027D+01 0.745058059692D-08
    0.970817314324D+00 0.254218750000D+03 0.193389759871D+01-0.799604735318D-08
   -0.917895376884D-10 0.100000000000D+01 0.191800000000D+04 0.000000000000D+00
    0.200000000000D+01 0.000000000000D+00-0.111758708954D-07 0.105000000000D+03
    0.936000000000D+05 0.400000000000D+01 0.000000000000D+00 0.000000000000D+00
14 16 10 10  4  0  0.0-0.393101945519D-04-0.193267624127D-11 0.000000000000D+00
    0.340000000000D+02 0.176875000000D+02 0.469198115413D-08-0.198327109705D+01
    0.966712832451D-06 0.873882486485D-02 0.682473182678D-05 0.515358849335D+04
    0.100800000000D+06 0.132247805595D-06-0.249926373829D+01 0.502914190292D-07
    0.963341527910D+00 0.245718750000D+03-0.194306084358D+01-0.798497546342D-08
   -0.217866217860D-10 0.100000000000D+01 0.191800000000D+04 0.000000000000D+00
    0.200000000000D+01 0.000000000000D+00-0.931322574616D-08 0.340000000000D+02
    0.936000000000D+05 0.400000000000D+01 0.000000000000D+00 0.000000000000D+00
15 16 10 10  4  0  0.0-0.330315902829D-03-0.136424205266D-11 0.000000000000D+00
    0.840000000000D+02 0.104375000000D+02 0.550880089224D-08-0.228166485590D+01
    0.217929482460D-06 0.858516222797D-02 0.656023621559D-05 0.515367802811D+04
    0.100800000000D+06 0.763684511185D-07-0.264002747284D+01-0.173225998878D-06
    0.930343267457D+00 0.237562500000D+03 0.511485962632D+00-0.847713882114D-08
    0.760745973838D-10 0.100000000000D+01 0.191800000000D+04 0.000000000000D+00
    0.200000000000D+01 0.000000000000D+00-0.107102096081D-07 0.840000000000D+02
    0.936000000000D+05 0.400000000000D+01 0.000000000000D+00 0.000000000000D+00
16 16 10 10  4  0  0.0 0.103753991425D-04 0.181898940355D-11 0.000000000000D+00
    0.270000000000D+02 0.487500000000D+02 0.391302013585D-08-0.597186819731D+00
    0.251457095146D-05 0.870331912302D-02 0.637210905552D-05 0.515358073616D+04
    0.100800000000D+06 0.162050127983D-06-0.407371294227D+00 0.502914190292D-07
    0.990793435826D+00 0.273062500000D+03 0.384834088856D+00-0.799033282943D-08
    0.410731394325D-10 0.100000000000D+01 0.191800000000D+04 0.000000000000D+00
    0.200000000000D+01 0.000000000000D+00-0.107102096081D-07 0.270000000000D+02
    0.996000000000D+05 0.400000000000D+01 0.000000000000D+00 0.000000000000D+00
